CCSDS_OMM_VERS = 2.0
CREATION_DATE  = 
ORIGINATOR     = 

OBJECT_NAME    = BEE-1000
OBJECT_ID      = 2025-274A
CENTER_NAME    = EARTH
REF_FRAME      = TEME
TIME_SYSTEM    = UTC
MEAN_ELEMENT_THEORY = SGP/SGP4

EPOCH          = 2025-12-05T07:21:10.074240
MEAN_MOTION    = 14.91621889
ECCENTRICITY   = .00104221
INCLINATION    = 97.7388
RA_OF_ASC_NODE = 266.6309
ARG_OF_PERICENTER = 280.3247
MEAN_ANOMALY   = 79.6797

EPHEMERIS_TYPE = 0
CLASSIFICATION_TYPE = U
NORAD_CAT_ID   = 66650
ELEMENT_SET_NO = 999
REV_AT_EPOCH   = 129
BSTAR          = .32210359E-3
MEAN_MOTION_DOT = .3181E-4
MEAN_MOTION_DDOT = 0

CCSDS_OMM_VERS = 2.0
CREATION_DATE  = 
ORIGINATOR     = 

OBJECT_NAME    = 2025-274B
OBJECT_ID      = 2025-274B
CENTER_NAME    = EARTH
REF_FRAME      = TEME
TIME_SYSTEM    = UTC
MEAN_ELEMENT_THEORY = SGP/SGP4

EPOCH          = 2025-12-05T07:20:38.363712
MEAN_MOTION    = 14.91710922
ECCENTRICITY   = .00106956
INCLINATION    = 97.7386
RA_OF_ASC_NODE = 266.6308
ARG_OF_PERICENTER = 279.7009
MEAN_ANOMALY   = 80.3002

EPHEMERIS_TYPE = 0
CLASSIFICATION_TYPE = U
NORAD_CAT_ID   = 66651
ELEMENT_SET_NO = 999
REV_AT_EPOCH   = 129
BSTAR          = .68570235E-3
MEAN_MOTION_DOT = .6855E-4
MEAN_MOTION_DDOT = 0

CCSDS_OMM_VERS = 2.0
CREATION_DATE  = 
ORIGINATOR     = 

OBJECT_NAME    = 2025-274C
OBJECT_ID      = 2025-274C
CENTER_NAME    = EARTH
REF_FRAME      = TEME
TIME_SYSTEM    = UTC
MEAN_ELEMENT_THEORY = SGP/SGP4

EPOCH          = 2025-12-05T07:19:24.887424
MEAN_MOTION    = 14.91843597
ECCENTRICITY   = .00104699
INCLINATION    = 97.7390
RA_OF_ASC_NODE = 266.6325
ARG_OF_PERICENTER = 286.5271
MEAN_ANOMALY   = 73.4797

EPHEMERIS_TYPE = 0
CLASSIFICATION_TYPE = U
NORAD_CAT_ID   = 66652
ELEMENT_SET_NO = 999
REV_AT_EPOCH   = 129
BSTAR          = .45957845E-3
MEAN_MOTION_DOT = .459E-4
MEAN_MOTION_DDOT = 0

CCSDS_OMM_VERS = 2.0
CREATION_DATE  = 
ORIGINATOR     = 

OBJECT_NAME    = 2025-274D
OBJECT_ID      = 2025-274D
CENTER_NAME    = EARTH
REF_FRAME      = TEME
TIME_SYSTEM    = UTC
MEAN_ELEMENT_THEORY = SGP/SGP4

EPOCH          = 2025-12-05T07:19:20.633952
MEAN_MOTION    = 14.91849081
ECCENTRICITY   = .00112727
INCLINATION    = 97.7388
RA_OF_ASC_NODE = 266.6323
ARG_OF_PERICENTER = 282.2972
MEAN_ANOMALY   = 77.6985

EPHEMERIS_TYPE = 0
CLASSIFICATION_TYPE = U
NORAD_CAT_ID   = 66653
ELEMENT_SET_NO = 999
REV_AT_EPOCH   = 129
BSTAR          = .42671241E-3
MEAN_MOTION_DOT = .4259E-4
MEAN_MOTION_DDOT = 0

CCSDS_OMM_VERS = 2.0
CREATION_DATE  = 
ORIGINATOR     = 

OBJECT_NAME    = JACK E
OBJECT_ID      = 2025-274E
CENTER_NAME    = EARTH
REF_FRAME      = TEME
TIME_SYSTEM    = UTC
MEAN_ELEMENT_THEORY = SGP/SGP4

EPOCH          = 2025-12-05T07:17:59.445600
MEAN_MOTION    = 14.92018904
ECCENTRICITY   = .00118187
INCLINATION    = 97.7389
RA_OF_ASC_NODE = 266.6340
ARG_OF_PERICENTER = 283.6965
MEAN_ANOMALY   = 76.2938

EPHEMERIS_TYPE = 0
CLASSIFICATION_TYPE = U
NORAD_CAT_ID   = 66654
ELEMENT_SET_NO = 999
REV_AT_EPOCH   = 129
BSTAR          = .53100408E-3
MEAN_MOTION_DOT = .5337E-4
MEAN_MOTION_DDOT = 0

CCSDS_OMM_VERS = 2.0
CREATION_DATE  = 
ORIGINATOR     = 

OBJECT_NAME    = 2025-274F
OBJECT_ID      = 2025-274F
CENTER_NAME    = EARTH
REF_FRAME      = TEME
TIME_SYSTEM    = UTC
MEAN_ELEMENT_THEORY = SGP/SGP4

EPOCH          = 2025-12-05T07:16:42.301632
MEAN_MOTION    = 14.92235438
ECCENTRICITY   = .00076843
INCLINATION    = 97.7362
RA_OF_ASC_NODE = 266.6343
ARG_OF_PERICENTER = 312.6423
MEAN_ANOMALY   = 47.4148

EPHEMERIS_TYPE = 0
CLASSIFICATION_TYPE = U
NORAD_CAT_ID   = 66655
ELEMENT_SET_NO = 999
REV_AT_EPOCH   = 129
BSTAR          = .39759604E-3
MEAN_MOTION_DOT = .4001E-4
MEAN_MOTION_DDOT = 0

CCSDS_OMM_VERS = 2.0
CREATION_DATE  = 
ORIGINATOR     = 

OBJECT_NAME    = 2025-274G
OBJECT_ID      = 2025-274G
CENTER_NAME    = EARTH
REF_FRAME      = TEME
TIME_SYSTEM    = UTC
MEAN_ELEMENT_THEORY = SGP/SGP4

EPOCH          = 2025-12-05T05:39:55.882080
MEAN_MOTION    = 14.92203569
ECCENTRICITY   = .00124059
INCLINATION    = 97.7386
RA_OF_ASC_NODE = 266.5695
ARG_OF_PERICENTER = 285.6584
MEAN_ANOMALY   = 74.3266

EPHEMERIS_TYPE = 0
CLASSIFICATION_TYPE = U
NORAD_CAT_ID   = 66656
ELEMENT_SET_NO = 999
REV_AT_EPOCH   = 128
BSTAR          = .61629871E-3
MEAN_MOTION_DOT = .6234E-4
MEAN_MOTION_DDOT = 0

CCSDS_OMM_VERS = 2.0
CREATION_DATE  = 
ORIGINATOR     = 

OBJECT_NAME    = SPIRONE
OBJECT_ID      = 2025-274H
CENTER_NAME    = EARTH
REF_FRAME      = TEME
TIME_SYSTEM    = UTC
MEAN_ELEMENT_THEORY = SGP/SGP4

EPOCH          = 2025-12-05T07:15:00.922464
MEAN_MOTION    = 14.92384278
ECCENTRICITY   = .00110607
INCLINATION    = 97.7387
RA_OF_ASC_NODE = 266.6360
ARG_OF_PERICENTER = 304.7015
MEAN_ANOMALY   = 55.3162

EPHEMERIS_TYPE = 0
CLASSIFICATION_TYPE = U
NORAD_CAT_ID   = 66657
ELEMENT_SET_NO = 999
REV_AT_EPOCH   = 129
BSTAR          = .60861124E-3
MEAN_MOTION_DOT = .6182E-4
MEAN_MOTION_DDOT = 0

CCSDS_OMM_VERS = 2.0
CREATION_DATE  = 
ORIGINATOR     = 

OBJECT_NAME    = 2025-274J
OBJECT_ID      = 2025-274J
CENTER_NAME    = EARTH
REF_FRAME      = TEME
TIME_SYSTEM    = UTC
MEAN_ELEMENT_THEORY = SGP/SGP4

EPOCH          = 2025-12-05T07:13:33.345696
MEAN_MOTION    = 14.92557518
ECCENTRICITY   = .00116162
INCLINATION    = 97.7389
RA_OF_ASC_NODE = 266.6374
ARG_OF_PERICENTER = 307.5835
MEAN_ANOMALY   = 52.4328

EPHEMERIS_TYPE = 0
CLASSIFICATION_TYPE = U
NORAD_CAT_ID   = 66658
ELEMENT_SET_NO = 999
REV_AT_EPOCH   = 129
BSTAR          = .5786355E-3
MEAN_MOTION_DOT = .5901E-4
MEAN_MOTION_DDOT = 0

CCSDS_OMM_VERS = 2.0
CREATION_DATE  = 
ORIGINATOR     = 

OBJECT_NAME    = JACK K
OBJECT_ID      = 2025-274K
CENTER_NAME    = EARTH
REF_FRAME      = TEME
TIME_SYSTEM    = UTC
MEAN_ELEMENT_THEORY = SGP/SGP4

EPOCH          = 2025-12-04T08:40:38.250048
MEAN_MOTION    = 14.92734551
ECCENTRICITY   = .0012354
INCLINATION    = 97.7386
RA_OF_ASC_NODE = 265.7163
ARG_OF_PERICENTER = 312.2173
MEAN_ANOMALY   = 47.7997

EPHEMERIS_TYPE = 0
CLASSIFICATION_TYPE = U
NORAD_CAT_ID   = 66659
ELEMENT_SET_NO = 999
REV_AT_EPOCH   = 115
BSTAR          = .69302E-3
MEAN_MOTION_DOT = .7113E-4
MEAN_MOTION_DDOT = 0

CCSDS_OMM_VERS = 2.0
CREATION_DATE  = 
ORIGINATOR     = 

OBJECT_NAME    = K-HERO
OBJECT_ID      = 2025-274L
CENTER_NAME    = EARTH
REF_FRAME      = TEME
TIME_SYSTEM    = UTC
MEAN_ELEMENT_THEORY = SGP/SGP4

EPOCH          = 2025-12-05T07:10:46.013088
MEAN_MOTION    = 14.92891926
ECCENTRICITY   = .00129657
INCLINATION    = 97.7394
RA_OF_ASC_NODE = 266.6407
ARG_OF_PERICENTER = 309.2025
MEAN_ANOMALY   = 50.8042

EPHEMERIS_TYPE = 0
CLASSIFICATION_TYPE = U
NORAD_CAT_ID   = 66660
ELEMENT_SET_NO = 999
REV_AT_EPOCH   = 129
BSTAR          = .53497482E-3
MEAN_MOTION_DOT = .5499E-4
MEAN_MOTION_DDOT = 0

CCSDS_OMM_VERS = 2.0
CREATION_DATE  = 
ORIGINATOR     = 

OBJECT_NAME    = SNUGLITE-III
OBJECT_ID      = 2025-274M
CENTER_NAME    = EARTH
REF_FRAME      = TEME
TIME_SYSTEM    = UTC
MEAN_ELEMENT_THEORY = SGP/SGP4

EPOCH          = 2025-12-05T07:09:29.397024
MEAN_MOTION    = 14.93041442
ECCENTRICITY   = .00136355
INCLINATION    = 97.7392
RA_OF_ASC_NODE = 266.6414
ARG_OF_PERICENTER = 310.0704
MEAN_ANOMALY   = 49.9319

EPHEMERIS_TYPE = 0
CLASSIFICATION_TYPE = U
NORAD_CAT_ID   = 66661
ELEMENT_SET_NO = 999
REV_AT_EPOCH   = 129
BSTAR          = .51687706E-3
MEAN_MOTION_DOT = .5332E-4
MEAN_MOTION_DDOT = 0

