BEE-1000                
1 66650U 25274A   25339.30636660  .00003181  00000+0  32210-3 0  9998
2 66650  97.7388 266.6309 0010422 280.3247  79.6797 14.91621889  1290
2025-274B               
1 66651U 25274B   25339.30599958  .00006855  00000+0  68570-3 0  9996
2 66651  97.7386 266.6308 0010695 279.7009  80.3002 14.91710922  1293
2025-274C               
1 66652U 25274C   25339.30514916  .00004590  00000+0  45958-3 0  9997
2 66652  97.7390 266.6325 0010469 286.5271  73.4797 14.91843597  1293
2025-274D               
1 66653U 25274D   25339.30509993  .00004259  00000+0  42671-3 0  9998
2 66653  97.7388 266.6323 0011272 282.2972  77.6985 14.91849081  1292
JACK E                  
1 66654U 25274E   25339.30416025  .00005337  00000+0  53100-3 0  9999
2 66654  97.7389 266.6340 0011818 283.6965  76.2938 14.92018904  1292
2025-274F               
1 66655U 25274F   25339.30326738  .00004001  00000+0  39760-3 0  9994
2 66655  97.7362 266.6343 0007684 312.6423  47.4148 14.92235438  1291
2025-274G               
1 66656U 25274G   25339.23606345  .00006234  00000+0  61630-3 0  9993
2 66656  97.7386 266.5695 0012405 285.6584  74.3266 14.92203569  1280
SPIRONE                 
1 66657U 25274H   25339.30209401  .00006182  00000+0  60861-3 0  9991
2 66657  97.7387 266.6360 0011060 304.7015  55.3162 14.92384278  1292
2025-274J               
1 66658U 25274J   25339.30108039  .00005901  00000+0  57864-3 0  9994
2 66658  97.7389 266.6374 0011616 307.5835  52.4328 14.92557518  1299
JACK K                  
1 66659U 25274K   25338.36155382  .00007113  00000+0  69302-3 0  9990
2 66659  97.7386 265.7163 0012354 312.2173  47.7997 14.92734551  1159
K-HERO                  
1 66660U 25274L   25339.29914367  .00005499  00000+0  53497-3 0  9994
2 66660  97.7394 266.6407 0012965 309.2025  50.8042 14.92891926  1292
SNUGLITE-III            
1 66661U 25274M   25339.29825691  .00005332  00000+0  51688-3 0  9992
2 66661  97.7392 266.6414 0013635 310.0704  49.9319 14.93041442  1295
